{"name":"aparcamientos_GEOJSON","type":"FeatureCollection"
,"features":[
{"type":"Feature","geometry":{"type":"Point","coordinates":[-6.34204232071547,39.4784863854682]},"properties":{"CLASE":"APARCAMIENTO","NOMBRE":"Escuela Politecnica","NUCLEO":"CÁCERES","URL":"http://sig.caceres.es/serweb/fichasig/fichatoponimia.php?mslink=1903","WGS84_X":"-6.341699","WGS84_Y":"39.478488"}}
,{"type":"Feature","geometry":{"type":"Point","coordinates":[-6.33920989263294,39.4783519049834]},"properties":{"CLASE":"APARCAMIENTO","NOMBRE":"Facultad de Derecho","NUCLEO":"CÁCERES","URL":"http://sig.caceres.es/serweb/fichasig/fichatoponimia.php?mslink=1904","WGS84_X":"-6.338842","WGS84_Y":"39.478352"}}
,{"type":"Feature","geometry":{"type":"Point","coordinates":[-6.33910399728722,39.4798752584084]},"properties":{"CLASE":"APARCAMIENTO","NOMBRE":"Facultad de Filosofia y Letras","NUCLEO":"CÁCERES","URL":"http://sig.caceres.es/serweb/fichasig/fichatoponimia.php?mslink=1905","WGS84_X":"-6.338639","WGS84_Y":"39.479874"}}
,{"type":"Feature","geometry":{"type":"Point","coordinates":[-6.34299129246439,39.4796929629517]},"properties":{"CLASE":"APARCAMIENTO","NOMBRE":"Escuela Politecnica","NUCLEO":"CÁCERES","URL":"http://sig.caceres.es/serweb/fichasig/fichatoponimia.php?mslink=1906","WGS84_X":"-6.342648","WGS84_Y":"39.479694"}}
,{"type":"Feature","geometry":{"type":"Point","coordinates":[-6.37655440485383,39.4391663230179]},"properties":{"CLASE":"APARCAMIENTO","NOMBRE":"Recinto Ferial","NUCLEO":"CÁCERES","URL":"http://sig.caceres.es/serweb/fichasig/fichatoponimia.php?mslink=1912","WGS84_X":"-6.376261","WGS84_Y":"39.439169"}}
,{"type":"Feature","geometry":{"type":"Point","coordinates":[-6.37492749594831,39.4434632774566]},"properties":{"CLASE":"APARCAMIENTO","NOMBRE":"Recinto Ferial","NUCLEO":"CÁCERES","URL":"http://sig.caceres.es/serweb/fichasig/fichatoponimia.php?mslink=1913","WGS84_X":"-6.374634","WGS84_Y":"39.443466"}}
,{"type":"Feature","geometry":{"type":"Point","coordinates":[-6.33613966573294,39.4750185773336]},"properties":{"CLASE":"APARCAMIENTO","NOMBRE":"Parque El Cuartillo","NUCLEO":"CÁCERES","URL":"http://sig.caceres.es/serweb/fichasig/fichatoponimia.php?mslink=1919","WGS84_X":"-6.335799","WGS84_Y":"39.47502"}}
,{"type":"Feature","geometry":{"type":"Point","coordinates":[-6.35188309106216,39.4626711279597]},"properties":{"CLASE":"APARCAMIENTO","NOMBRE":"Santuario Virgen de la Montaña","NUCLEO":"CÁCERES","URL":"http://sig.caceres.es/serweb/fichasig/fichatoponimia.php?mslink=1914","WGS84_X":"-6.351883","WGS84_Y":"39.462671"}}
,{"type":"Feature","geometry":{"type":"Point","coordinates":[-6.37020394861133,39.4656358362977]},"properties":{"CLASE":"APARCAMIENTO","NOMBRE":"Hospital San Pedro de Alcantara","NUCLEO":"CÁCERES","URL":"http://sig.caceres.es/serweb/fichasig/fichatoponimia.php?mslink=1901","WGS84_X":"-6.370204","WGS84_Y":"39.465636"}}
,{"type":"Feature","geometry":{"type":"Point","coordinates":[-6.36760641024598,39.4670007528481]},"properties":{"CLASE":"APARCAMIENTO","NOMBRE":"Complejo Cultural San Francisco","NUCLEO":"CÁCERES","URL":"http://sig.caceres.es/serweb/fichasig/fichatoponimia.php?mslink=1902","WGS84_X":"-6.367606","WGS84_Y":"39.467001"}}
,{"type":"Feature","geometry":{"type":"Point","coordinates":[-6.36773571366049,39.4643724608449]},"properties":{"CLASE":"APARCAMIENTO","NOMBRE":"San Pedro de Alcantara","NUCLEO":"CÁCERES","URL":"http://sig.caceres.es/serweb/fichasig/fichatoponimia.php?mslink=2004","WGS84_X":"-6.367736","WGS84_Y":"39.464372"}}
,{"type":"Feature","geometry":{"type":"Point","coordinates":[-6.38303376278975,39.4705472273932]},"properties":{"CLASE":"APARCAMIENTO","NOMBRE":"Hiper Tambo","NUCLEO":"CÁCERES","URL":"http://sig.caceres.es/serweb/fichasig/fichatoponimia.php?mslink=1911","WGS84_X":"-6.383034","WGS84_Y":"39.470547"}}
,{"type":"Feature","geometry":{"type":"Point","coordinates":[-6.39213433999072,39.4721770432932]},"properties":{"CLASE":"APARCAMIENTO","NOMBRE":"Supermercado Lidl","NUCLEO":"CÁCERES","URL":"http://sig.caceres.es/serweb/fichasig/fichatoponimia.php?mslink=1910","WGS84_X":"-6.392134","WGS84_Y":"39.472177"}}
,{"type":"Feature","geometry":{"type":"Point","coordinates":[-6.39232863053379,39.4714804027886]},"properties":{"CLASE":"APARCAMIENTO","NOMBRE":"Supermercado Dia","NUCLEO":"CÁCERES","URL":"http://sig.caceres.es/serweb/fichasig/fichatoponimia.php?mslink=1909","WGS84_X":"-6.392329","WGS84_Y":"39.47148"}}
,{"type":"Feature","geometry":{"type":"Point","coordinates":[-6.394390837945,39.467833261051]},"properties":{"CLASE":"APARCAMIENTO","NOMBRE":"Carrefour","NUCLEO":"CÁCERES","URL":"http://sig.caceres.es/serweb/fichasig/fichatoponimia.php?mslink=1907","WGS84_X":"-6.394391","WGS84_Y":"39.467833"}}
,{"type":"Feature","geometry":{"type":"Point","coordinates":[-6.41303851781696,39.4883535809515]},"properties":{"CLASE":"APARCAMIENTO","NOMBRE":"Camping Municipal","NUCLEO":"CÁCERES","URL":"http://sig.caceres.es/serweb/fichasig/fichatoponimia.php?mslink=1918","WGS84_X":"-6.413039","WGS84_Y":"39.488354"}}
,{"type":"Feature","geometry":{"type":"Point","coordinates":[-6.41342565655048,39.4879254321175]},"properties":{"CLASE":"APARCAMIENTO","NOMBRE":"Estadio Principe Felipe","NUCLEO":"CÁCERES","URL":"http://sig.caceres.es/serweb/fichasig/fichatoponimia.php?mslink=1917","WGS84_X":"-6.413426","WGS84_Y":"39.487925"}}
,{"type":"Feature","geometry":{"type":"Point","coordinates":[-6.36738283828115,39.48040190854]},"properties":{"CLASE":"APARCAMIENTO","NOMBRE":"Valhondo","NUCLEO":"CÁCERES","URL":"http://sig.caceres.es/serweb/fichasig/fichatoponimia.php?mslink=2019","WGS84_X":"-6.367157","WGS84_Y":"39.480406"}}
,{"type":"Feature","geometry":{"type":"Point","coordinates":[-6.36766775470439,39.4692544727625]},"properties":{"CLASE":"APARCAMIENTO","NOMBRE":"Fuente Fria","NUCLEO":"CÁCERES","URL":"http://sig.caceres.es/serweb/fichasig/fichatoponimia.php?mslink=2061","WGS84_X":"-6.367409","WGS84_Y":"39.469258"}}
,{"type":"Feature","geometry":{"type":"Point","coordinates":[-6.38330214315009,39.4616773750603]},"properties":{"CLASE":"APARCAMIENTO","NOMBRE":"Aparcamiento Los Frates","NUCLEO":"CÁCERES","URL":"http://sig.caceres.es/serweb/fichasig/fichatoponimia.php?mslink=10000","WGS84_X":"-6.383133","WGS84_Y":"39.461683"}}
,{"type":"Feature","geometry":{"type":"Point","coordinates":[-6.36899025261182,39.4625678535708]},"properties":{"CLASE":"APARCAMIENTO","NOMBRE":"Avenida de la Hispanidad","NUCLEO":"CÁCERES","URL":"http://sig.caceres.es/serweb/fichasig/fichatoponimia.php?mslink=10738","WGS84_X":"-6.36899","WGS84_Y":"39.462568"}}
,{"type":"Feature","geometry":{"type":"Point","coordinates":[-6.38261226911064,39.460326703982]},"properties":{"CLASE":"APARCAMIENTO","NOMBRE":"Estacion de Autobuses","NUCLEO":"CÁCERES","URL":"http://sig.caceres.es/serweb/fichasig/fichatoponimia.php?mslink=1916","WGS84_X":"-6.382612","WGS84_Y":"39.460327"}}
,{"type":"Feature","geometry":{"type":"Point","coordinates":[-6.38539175008094,39.4611781029979]},"properties":{"CLASE":"APARCAMIENTO","NOMBRE":"Estación de trenes","NUCLEO":"CÁCERES","URL":"http://sig.caceres.es/serweb/fichasig/fichatoponimia.php?mslink=1915","WGS84_X":"-6.385392","WGS84_Y":"39.461178"}}
,{"type":"Feature","geometry":{"type":"Point","coordinates":[-6.38035760586413,39.4760037297415]},"properties":{"CLASE":"APARCAMIENTO","NOMBRE":"Parque del Príncipe","NUCLEO":"CÁCERES","URL":"http://sig.caceres.es/serweb/fichasig/fichatoponimia.php?mslink=10753","WGS84_X":"-6.380358","WGS84_Y":"39.476004"}}
]}
